CCSDS_OMM_VERS = 2.0
CREATION_DATE  = 
ORIGINATOR     = 

OBJECT_NAME    = SL-3 R/B
OBJECT_ID      = 1982-079B
CENTER_NAME    = EARTH
REF_FRAME      = TEME
TIME_SYSTEM    = UTC
MEAN_ELEMENT_THEORY = SGP/SGP4

EPOCH          = 2026-02-08T06:19:02.067168
MEAN_MOTION    = 15.24367791
ECCENTRICITY   = .00241254
INCLINATION    = 81.1444
RA_OF_ASC_NODE = 227.8135
ARG_OF_PERICENTER = 265.9825
MEAN_ANOMALY   = 93.8650

EPHEMERIS_TYPE = 0
CLASSIFICATION_TYPE = U
NORAD_CAT_ID   = 13403
ELEMENT_SET_NO = 999
REV_AT_EPOCH   = 37321
BSTAR          = .27869413E-3
MEAN_MOTION_DOT = .6905E-4
MEAN_MOTION_DDOT = 0

CCSDS_OMM_VERS = 2.0
CREATION_DATE  = 
ORIGINATOR     = 

OBJECT_NAME    = SL-14 R/B
OBJECT_ID      = 1982-092B
CENTER_NAME    = EARTH
REF_FRAME      = TEME
TIME_SYSTEM    = UTC
MEAN_ELEMENT_THEORY = SGP/SGP4

EPOCH          = 2026-02-07T20:04:25.415328
MEAN_MOTION    = 14.86633146
ECCENTRICITY   = .00213694
INCLINATION    = 82.5702
RA_OF_ASC_NODE = 169.3133
ARG_OF_PERICENTER = 43.5235
MEAN_ANOMALY   = 70.5753

EPHEMERIS_TYPE = 0
CLASSIFICATION_TYPE = U
NORAD_CAT_ID   = 13553
ELEMENT_SET_NO = 999
REV_AT_EPOCH   = 32449
BSTAR          = .84099406E-4
MEAN_MOTION_DOT = .774E-5
MEAN_MOTION_DDOT = 0

CCSDS_OMM_VERS = 2.0
CREATION_DATE  = 
ORIGINATOR     = 

OBJECT_NAME    = SL-3 R/B
OBJECT_ID      = 1983-010B
CENTER_NAME    = EARTH
REF_FRAME      = TEME
TIME_SYSTEM    = UTC
MEAN_ELEMENT_THEORY = SGP/SGP4

EPOCH          = 2026-02-08T01:10:16.929120
MEAN_MOTION    = 15.45304001
ECCENTRICITY   = .00179183
INCLINATION    = 81.1026
RA_OF_ASC_NODE = 38.5589
ARG_OF_PERICENTER = 145.2695
MEAN_ANOMALY   = 214.9723

EPHEMERIS_TYPE = 0
CLASSIFICATION_TYPE = U
NORAD_CAT_ID   = 13819
ELEMENT_SET_NO = 999
REV_AT_EPOCH   = 35336
BSTAR          = .32493711E-3
MEAN_MOTION_DOT = .15611E-3
MEAN_MOTION_DDOT = 0

CCSDS_OMM_VERS = 2.0
CREATION_DATE  = 
ORIGINATOR     = 

OBJECT_NAME    = SL-3 R/B
OBJECT_ID      = 1983-075B
CENTER_NAME    = EARTH
REF_FRAME      = TEME
TIME_SYSTEM    = UTC
MEAN_ELEMENT_THEORY = SGP/SGP4

EPOCH          = 2026-02-08T05:09:10.987200
MEAN_MOTION    = 15.37655137
ECCENTRICITY   = .00211723
INCLINATION    = 97.6136
RA_OF_ASC_NODE = 42.6984
ARG_OF_PERICENTER = 340.6940
MEAN_ANOMALY   = 19.3500

EPHEMERIS_TYPE = 0
CLASSIFICATION_TYPE = U
NORAD_CAT_ID   = 14208
ELEMENT_SET_NO = 999
REV_AT_EPOCH   = 32562
BSTAR          = .37329788E-3
MEAN_MOTION_DOT = .13824E-3
MEAN_MOTION_DDOT = 0

CCSDS_OMM_VERS = 2.0
CREATION_DATE  = 
ORIGINATOR     = 

OBJECT_NAME    = COSMOS 1536
OBJECT_ID      = 1984-013A
CENTER_NAME    = EARTH
REF_FRAME      = TEME
TIME_SYSTEM    = UTC
MEAN_ELEMENT_THEORY = SGP/SGP4

EPOCH          = 2026-02-08T07:08:17.024928
MEAN_MOTION    = 15.23433211
ECCENTRICITY   = .00149543
INCLINATION    = 82.5467
RA_OF_ASC_NODE = 137.0520
ARG_OF_PERICENTER = 31.2805
MEAN_ANOMALY   = 328.9318

EPHEMERIS_TYPE = 0
CLASSIFICATION_TYPE = U
NORAD_CAT_ID   = 14699
ELEMENT_SET_NO = 999
REV_AT_EPOCH   = 26814
BSTAR          = .28712078E-3
MEAN_MOTION_DOT = .689E-4
MEAN_MOTION_DDOT = 0

CCSDS_OMM_VERS = 2.0
CREATION_DATE  = 
ORIGINATOR     = 

OBJECT_NAME    = SL-14 R/B
OBJECT_ID      = 1984-027B
CENTER_NAME    = EARTH
REF_FRAME      = TEME
TIME_SYSTEM    = UTC
MEAN_ELEMENT_THEORY = SGP/SGP4

EPOCH          = 2026-02-08T03:09:40.681440
MEAN_MOTION    = 14.85947387
ECCENTRICITY   = .00194661
INCLINATION    = 82.5399
RA_OF_ASC_NODE = 272.7406
ARG_OF_PERICENTER = 72.7664
MEAN_ANOMALY   = 287.5681

EPHEMERIS_TYPE = 0
CLASSIFICATION_TYPE = U
NORAD_CAT_ID   = 14820
ELEMENT_SET_NO = 999
REV_AT_EPOCH   = 24324
BSTAR          = .56431047E-4
MEAN_MOTION_DOT = .519E-5
MEAN_MOTION_DDOT = 0

CCSDS_OMM_VERS = 2.0
CREATION_DATE  = 
ORIGINATOR     = 

OBJECT_NAME    = SL-8 R/B
OBJECT_ID      = 1985-006B
CENTER_NAME    = EARTH
REF_FRAME      = TEME
TIME_SYSTEM    = UTC
MEAN_ELEMENT_THEORY = SGP/SGP4

EPOCH          = 2026-02-08T05:39:00.426240
MEAN_MOTION    = 14.37768521
ECCENTRICITY   = .00195249
INCLINATION    = 74.0472
RA_OF_ASC_NODE = 315.3463
ARG_OF_PERICENTER = 238.8549
MEAN_ANOMALY   = 232.8369

EPHEMERIS_TYPE = 0
CLASSIFICATION_TYPE = U
NORAD_CAT_ID   = 15483
ELEMENT_SET_NO = 999
REV_AT_EPOCH   = 14979
BSTAR          = .10798763E-3
MEAN_MOTION_DOT = .299E-5
MEAN_MOTION_DDOT = 0

CCSDS_OMM_VERS = 2.0
CREATION_DATE  = 
ORIGINATOR     = 

OBJECT_NAME    = SL-12 R/B(2)
OBJECT_ID      = 1985-042D
CENTER_NAME    = EARTH
REF_FRAME      = TEME
TIME_SYSTEM    = UTC
MEAN_ELEMENT_THEORY = SGP/SGP4

EPOCH          = 2026-02-08T06:45:37.537344
MEAN_MOTION    = 14.21973979
ECCENTRICITY   = .00349491
INCLINATION    = 71.1087
RA_OF_ASC_NODE = 149.8584
ARG_OF_PERICENTER = 175.2380
MEAN_ANOMALY   = 205.5284

EPHEMERIS_TYPE = 0
CLASSIFICATION_TYPE = U
NORAD_CAT_ID   = 15772
ELEMENT_SET_NO = 999
REV_AT_EPOCH   = 11021
BSTAR          = .10488235E-3
MEAN_MOTION_DOT = .186E-5
MEAN_MOTION_DDOT = 0

CCSDS_OMM_VERS = 2.0
CREATION_DATE  = 
ORIGINATOR     = 

OBJECT_NAME    = SL-14 R/B
OBJECT_ID      = 1985-069B
CENTER_NAME    = EARTH
REF_FRAME      = TEME
TIME_SYSTEM    = UTC
MEAN_ELEMENT_THEORY = SGP/SGP4

EPOCH          = 2026-02-08T03:00:38.566368
MEAN_MOTION    = 14.86398003
ECCENTRICITY   = .00172981
INCLINATION    = 82.5240
RA_OF_ASC_NODE = 52.7392
ARG_OF_PERICENTER = 292.3875
MEAN_ANOMALY   = 67.5509

EPHEMERIS_TYPE = 0
CLASSIFICATION_TYPE = U
NORAD_CAT_ID   = 15945
ELEMENT_SET_NO = 999
REV_AT_EPOCH   = 16844
BSTAR          = .66257328E-4
MEAN_MOTION_DOT = .61E-5
MEAN_MOTION_DDOT = 0

CCSDS_OMM_VERS = 2.0
CREATION_DATE  = 
ORIGINATOR     = 

OBJECT_NAME    = SL-16 R/B
OBJECT_ID      = 1985-097B
CENTER_NAME    = EARTH
REF_FRAME      = TEME
TIME_SYSTEM    = UTC
MEAN_ELEMENT_THEORY = SGP/SGP4

EPOCH          = 2026-02-07T21:58:43.620096
MEAN_MOTION    = 14.16596400
ECCENTRICITY   = .0009584
INCLINATION    = 71.0016
RA_OF_ASC_NODE = 203.2320
ARG_OF_PERICENTER = 294.5187
MEAN_ANOMALY   = 178.7757

EPHEMERIS_TYPE = 0
CLASSIFICATION_TYPE = U
NORAD_CAT_ID   = 16182
ELEMENT_SET_NO = 999
REV_AT_EPOCH   = 8301
BSTAR          = -.68941E-7
MEAN_MOTION_DOT = -.48E-6
MEAN_MOTION_DDOT = 0

CCSDS_OMM_VERS = 2.0
CREATION_DATE  = 
ORIGINATOR     = 

OBJECT_NAME    = SL-14 R/B
OBJECT_ID      = 1986-006B
CENTER_NAME    = EARTH
REF_FRAME      = TEME
TIME_SYSTEM    = UTC
MEAN_ELEMENT_THEORY = SGP/SGP4

EPOCH          = 2026-02-08T04:15:42.652800
MEAN_MOTION    = 14.86774656
ECCENTRICITY   = .00769731
INCLINATION    = 82.5268
RA_OF_ASC_NODE = 287.5152
ARG_OF_PERICENTER = 11.6997
MEAN_ANOMALY   = 348.5985

EPHEMERIS_TYPE = 0
CLASSIFICATION_TYPE = U
NORAD_CAT_ID   = 16496
ELEMENT_SET_NO = 999
REV_AT_EPOCH   = 14482
BSTAR          = .89865922E-4
MEAN_MOTION_DOT = .871E-5
MEAN_MOTION_DDOT = 0

CCSDS_OMM_VERS = 2.0
CREATION_DATE  = 
ORIGINATOR     = 

OBJECT_NAME    = COSMOS 1743
OBJECT_ID      = 1986-034A
CENTER_NAME    = EARTH
REF_FRAME      = TEME
TIME_SYSTEM    = UTC
MEAN_ELEMENT_THEORY = SGP/SGP4

EPOCH          = 2026-02-08T05:10:07.908384
MEAN_MOTION    = 15.56420485
ECCENTRICITY   = .00050974
INCLINATION    = 82.5329
RA_OF_ASC_NODE = 104.7110
ARG_OF_PERICENTER = 53.7128
MEAN_ANOMALY   = 306.4597

EPHEMERIS_TYPE = 0
CLASSIFICATION_TYPE = U
NORAD_CAT_ID   = 16719
ELEMENT_SET_NO = 999
REV_AT_EPOCH   = 17566
BSTAR          = .49091109E-3
MEAN_MOTION_DOT = .3481E-3
MEAN_MOTION_DDOT = 0

