SL-3 R/B                
1 13403U 82079B   26039.26321837  .00006905  00000+0  27869-3 0  9993
2 13403  81.1444 227.8135 0024125 265.9825  93.8650 15.24367791373216
SL-14 R/B               
1 13553U 82092B   26038.83640527  .00000774  00000+0  84099-4 0  9993
2 13553  82.5702 169.3133 0021369  43.5235  70.5753 14.86633146324493
SL-3 R/B                
1 13819U 83010B   26039.04880705  .00015611  00000+0  32494-3 0  9994
2 13819  81.1026  38.5589 0017918 145.2695 214.9723 15.45304001353369
SL-3 R/B                
1 14208U 83075B   26039.21471050  .00013824  00000+0  37330-3 0  9994
2 14208  97.6136  42.6984 0021172 340.6940  19.3500 15.37655137325620
COSMOS 1536             
1 14699U 84013A   26039.29741927  .00006890  00000+0  28712-3 0  9991
2 14699  82.5467 137.0520 0014954  31.2805 328.9318 15.23433211268143
SL-14 R/B               
1 14820U 84027B   26039.13172085  .00000519  00000+0  56431-4 0  9990
2 14820  82.5399 272.7406 0019466  72.7664 287.5681 14.85947387243247
SL-8 R/B                
1 15483U 85006B   26039.23542160  .00000299  00000+0  10799-3 0  9991
2 15483  74.0472 315.3463 0019524 238.8549 232.8369 14.37768521149799
SL-12 R/B(2)            
1 15772U 85042D   26039.28168446  .00000186  00000+0  10488-3 0  9998
2 15772  71.1087 149.8584 0034949 175.2380 205.5284 14.21973979110215
SL-14 R/B               
1 15945U 85069B   26039.12544637  .00000610  00000+0  66257-4 0  9990
2 15945  82.5240  52.7392 0017298 292.3875  67.5509 14.86398003168445
SL-16 R/B               
1 16182U 85097B   26038.91578264 -.00000048  00000+0 -68941-7 0  9996
2 16182  71.0016 203.2320 0009584 294.5187 178.7757 14.16596400 83019
SL-14 R/B               
1 16496U 86006B   26039.17757700  .00000871  00000+0  89866-4 0  9996
2 16496  82.5268 287.5152 0076973  11.6997 348.5985 14.86774656144829
COSMOS 1743             
1 16719U 86034A   26039.21536931  .00034810  00000+0  49091-3 0  9996
2 16719  82.5329 104.7110 0005097  53.7128 306.4597 15.56420485175665
